[{"OBJECT_NAME":"OBJECT AK","OBJECT_ID":"2023-085AK","EPOCH":"2026-03-09T22:56:06.883872","MEAN_MOTION":15.22552631,"ECCENTRICITY":0.0009301,"INCLINATION":97.4785,"RA_OF_ASC_NODE":174.9327,"ARG_OF_PERICENTER":89.7011,"MEAN_ANOMALY":270.5291,"EPHEMERIS_TYPE":0,"CLASSIFICATION_TYPE":"U","NORAD_CAT_ID":57037,"ELEMENT_SET_NO":999,"REV_AT_EPOCH":15122,"BSTAR":0.00049591669,"MEAN_MOTION_DOT":0.00011459,"MEAN_MOTION_DDOT":0},{"OBJECT_NAME":"SHIYAN-31","OBJECT_ID":"2025-227A","EPOCH":"2026-03-09T23:00:16.199712","MEAN_MOTION":15.23071011,"ECCENTRICITY":0.00102897,"INCLINATION":80.0014,"RA_OF_ASC_NODE":266.3496,"ARG_OF_PERICENTER":145.5638,"MEAN_ANOMALY":214.6259,"EPHEMERIS_TYPE":0,"CLASSIFICATION_TYPE":"U","NORAD_CAT_ID":65945,"ELEMENT_SET_NO":999,"REV_AT_EPOCH":2244,"BSTAR":0.00029737952,"MEAN_MOTION_DOT":7.034e-5,"MEAN_MOTION_DDOT":0}]
